NORAD_CAT_ID,OBJECT_NAME,OBJECT_TYPE,EPOCH,MEAN_MOTION,ECCENTRICITY,INCLINATION,RA_OF_ASC_NODE,ARG_OF_PERICENTER,MEAN_ANOMALY,BSTAR,MEAN_MOTION_DOT,MEAN_MOTION_DDOT,TLE_LINE0,TLE_LINE1,TLE_LINE2,SEMIMAJOR_AXIS,PERIOD,APOGEE,PERIGEE,DECAYED
55765.0,STARLINK-5595,PAYLOAD,2024-04-12 14:43:01,14.98328493,0.0003032,70.0011,179.6741,267.9745,92.1067,-6.8206e-06,-1.74e-06,0.0,0 STARLINK-5595,1 55765U 23028AA  24103.61320806 -.00000174  00000-0 -68206-5 0  9990,2 55765  70.0011 179.6741 0003032 267.9745  92.1067 14.98328493 62264,6950.198,96.107,574.17,569.955,0.0
55765.0,STARLINK-5595,PAYLOAD,2024-04-13 14:45:01,14.9833224,0.0003233,70.0005,177.1492,270.5965,89.4824,5.2127e-05,5.29e-06,0.0,0 STARLINK-5595,1 55765U 23028AA  24104.61460425  .00000529  00000-0  52127-4 0  9999,2 55765  70.0005 177.1492 0003233 270.5965  89.4824 14.98332240 62412,6950.186,96.107,574.298,569.804,0.0
55765.0,STARLINK-5595,PAYLOAD,2024-04-14 14:47:02,14.98333586,0.0002964,70.0011,174.6253,264.832,95.2501,6.7415e-05,7.12e-06,0.0,0 STARLINK-5595,1 55765U 23028AA  24105.61600225  .00000712  00000-0  67415-4 0  9994,2 55765  70.0011 174.6253 0002964 264.8320  95.2501 14.98333586 62553,6950.182,96.107,574.107,569.987,0.0
55765.0,STARLINK-5595,PAYLOAD,2024-04-15 11:36:46,14.98391515,0.0002744,70.0014,172.4364,259.2119,100.8732,-0.00095139,-0.00011444,0.0,0 STARLINK-5595,1 55765U 23028AA  24106.48387050 -.00011444  00000-0 -95139-3 0  9997,2 55765  70.0014 172.4364 0002744 259.2119 100.8732 14.98391515 62684,6950.003,96.103,573.775,569.961,0.0
55765.0,STARLINK-5595,PAYLOAD,2024-04-15 14:49:03,14.98333761,0.0002793,70.0014,172.0999,266.5166,93.5674,5.771e-05,5.96e-06,0.0,0 STARLINK-5595,1 55765U 23028AA  24106.61740003  .00000596  00000-0  57710-4 0  9991,2 55765  70.0014 172.0999 0002793 266.5166  93.5674 14.98333761 62717,6950.181,96.107,573.987,570.105,0.0
55765.0,STARLINK-5595,PAYLOAD,2024-04-16 05:14:16,14.98328857,0.0002688,70.0016,170.5852,267.336,92.7491,-2.7705e-05,-4.23e-06,0.0,0 STARLINK-5595,1 55765U 23028AA  24107.21824476 -.00000423  00000-0 -27705-4 0  9997,2 55765  70.0016 170.5852 0002688 267.3360  92.7491 14.98328857 62794,6950.196,96.107,573.93,570.193,0.0
55765.0,STARLINK-5595,PAYLOAD,2024-04-16 13:14:56,14.98330325,0.0002755,70.0015,169.7438,266.3169,93.7675,-1.9197e-05,-3.22e-06,0.0,0 STARLINK-5595,1 55765U 23028AA  24107.55204349 -.00000322  00000-0 -19197-4 0  9999,2 55765  70.0015 169.7438 0002755 266.3169  93.7675 14.98330325 62859,6950.192,96.107,573.972,570.142,0.0
55765.0,STARLINK-5595,PAYLOAD,2024-04-17 11:40:49,14.98323945,0.0002719,70.0013,167.3876,258.4078,101.6776,-7.9608e-05,-1.042e-05,0.0,0 STARLINK-5595,1 55765U 23028AA  24108.48668978 -.00001042  00000-0 -79608-4 0  9997,2 55765  70.0013 167.3876 0002719 258.4078 101.6776 14.98323945 62983,6950.212,96.107,573.966,570.187,0.0
55765.0,STARLINK-5595,PAYLOAD,2024-04-17 13:16:58,14.98323305,0.0002788,70.0008,167.2186,268.5975,91.4865,-7.4779e-05,-9.85e-06,0.0,0 STARLINK-5595,1 55765U 23028AA  24108.55345082 -.00000985  00000-0 -74779-4 0  9992,2 55765  70.0008 167.2186 0002788 268.5975  91.4865 14.98323305 63003,6950.214,96.107,574.016,570.141,0.0
55765.0,STARLINK-5595,PAYLOAD,2024-04-17 21:17:38,14.98327922,0.0003241,69.9997,166.376,269.6442,90.4346,-0.00011758,-1.496e-05,0.0,0 STARLINK-5595,1 55765U 23028AA  24108.88724872 -.00001496  00000-0 -11758-3 0  9991,2 55765  69.9997 166.3760 0003241 269.6442  90.4346 14.98327922 63058,6950.199,96.107,574.317,569.812,0.0
55765.0,STARLINK-5595,PAYLOAD,2024-04-18 11:42:51,14.98321065,0.0003006,69.9999,164.861,269.4742,90.6073,-4.5776e-05,-6.39e-06,0.0,0 STARLINK-5595,1 55765U 23028AA  24109.48809556 -.00000639  00000-0 -45776-4 0  9997,2 55765  69.9999 164.8610 0003006 269.4742  90.6073 14.98321065 63137,6950.221,96.108,574.175,569.996,0.0
55765.0,STARLINK-5595,PAYLOAD,2024-04-18 13:18:59,14.983229,0.0002913,70.0001,164.6928,269.1579,90.9246,-2.0425e-05,-3.37e-06,0.0,0 STARLINK-5595,1 55765U 23028AA  24109.55485409 -.00000337  00000-0 -20425-4 0  9991,2 55765  70.0001 164.6928 0002913 269.1579  90.9246 14.98322900 63151,6950.215,96.107,574.104,570.055,0.0
55765.0,STARLINK-5595,PAYLOAD,2024-04-19 03:44:12,14.98300883,0.0003275,70.0008,163.1786,276.4216,83.6569,0.00015576,1.765e-05,0.0,0 STARLINK-5595,1 55765U 23028AA  24110.15570596  .00001765  00000-0  15576-3 0  9995,2 55765  70.0008 163.1786 0003275 276.4216  83.6569 14.98300883 63237,6950.283,96.109,574.424,569.872,0.0
55765.0,STARLINK-5595,PAYLOAD,2024-04-19 11:44:52,14.98323713,0.0003091,69.9997,162.3361,269.781,90.2995,6.742e-05,7.11e-06,0.0,0 STARLINK-5595,1 55765U 23028AA  24110.48950161  .00000711  00000-0  67420-4 0  9997,2 55765  69.9997 162.3361 0003091 269.7810  90.2995 14.98323713 63281,6950.212,96.107,574.226,569.929,0.0
55765.0,STARLINK-5595,PAYLOAD,2024-04-19 13:21:00,14.98326976,0.0003105,70.0,162.168,267.1783,92.9021,0.00010506,1.161e-05,0.0,0 STARLINK-5595,1 55765U 23028AA  24110.55625812  .00001161  00000-0  10506-3 0  9999,2 55765  70.0000 162.1680 0003105 267.1783  92.9021 14.98326976 63304,6950.202,96.107,574.225,569.909,0.0
55765.0,STARLINK-5595,PAYLOAD,2024-04-20 03:46:11,14.98344276,0.0002825,69.9999,160.6532,279.5855,80.4985,0.00030205,3.514e-05,0.0,0 STARLINK-5595,1 55765U 23028AA  24111.15708140  .00003514  00000-0  30205-3 0  9994,2 55765  69.9999 160.6532 0002825 279.5855  80.4985 14.98344276 63384,6950.149,96.106,573.977,570.05,0.0
55765.0,STARLINK-5595,PAYLOAD,2024-04-20 11:46:51,14.98352555,0.0002385,70.0019,159.8148,247.6854,112.4052,0.00037072,4.336e-05,0.0,0 STARLINK-5595,1 55765U 23028AA  24111.49086955  .00004336  00000-0  37072-3 0  9996,2 55765  70.0019 159.8148 0002385 247.6854 112.4052 14.98352555 63435,6950.123,96.106,573.646,570.331,0.0
55765.0,STARLINK-5595,PAYLOAD,2024-04-20 13:22:59,14.98354643,0.0002351,70.0015,159.6452,260.9001,99.1892,0.00039643,4.643e-05,0.0,0 STARLINK-5595,1 55765U 23028AA  24111.55762773  .00004643  00000-0  39643-3 0  9999,2 55765  70.0015 159.6452 0002351 260.9001  99.1892 14.98354643 63457,6950.117,96.105,573.616,570.348,0.0
55765.0,STARLINK-5595,PAYLOAD,2024-04-21 03:48:15,14.98290241,0.0002879,70.0008,158.1275,268.0715,92.0114,0.00030211,3.51e-05,0.0,0 STARLINK-5595,1 55765U 23028AA  24112.15850707  .00003510  00000-0  30211-3 0  9995,2 55765  70.0008 158.1275 0002879 268.0715  92.0114 14.98290241 63533,6950.316,96.11,574.182,570.18,0.0
55765.0,STARLINK-5595,PAYLOAD,2024-04-21 13:25:04,14.9829245,0.0003293,69.9986,157.1181,270.5283,89.5499,0.00020383,2.338e-05,0.0,0 STARLINK-5595,1 55765U 23028AA  24112.55907637  .00002338  00000-0  20383-3 0  9990,2 55765  69.9986 157.1181 0003293 270.5283  89.5499 14.98292450 63608,6950.309,96.109,574.463,569.885,0.0
55765.0,STARLINK-5595,PAYLOAD,2024-04-22 03:50:15,14.98338308,0.0003552,69.9981,155.6033,267.8191,92.2561,-0.00038464,-4.681e-05,0.0,0 STARLINK-5595,1 55765U 23028AA  24113.15990409 -.00004681  00000-0 -38464-3 0  9990,2 55765  69.9981 155.6033 0003552 267.8191  92.2561 14.98338308 63689,6950.167,96.106,574.501,569.563,0.0
55765.0,STARLINK-5595,PAYLOAD,2024-04-22 10:14:47,14.98339747,0.0002532,70.001,154.9319,246.7011,113.3882,-0.00025005,-3.076e-05,0.0,0 STARLINK-5595,1 55765U 23028AA  24113.42693861 -.00003076  00000-0 -25005-3 0  9996,2 55765  70.0010 154.9319 0002532 246.7011 113.3882 14.98339747 63722,6950.163,96.106,573.788,570.268,0.0
55765.0,STARLINK-5595,PAYLOAD,2024-04-22 11:50:55,14.98339771,0.00026,70.0012,154.7644,240.9996,119.0903,-0.00022974,-2.834e-05,0.0,0 STARLINK-5595,1 55765U 23028AA  24113.49369818 -.00002834  00000-0 -22974-3 0  9998,2 55765  70.0012 154.7644 0002600 240.9996 119.0903 14.98339771 63743,6950.163,96.106,573.835,570.221,0.0
55765.0,STARLINK-5595,PAYLOAD,2024-04-23 11:52:55,14.98322473,0.0002652,70.0016,152.2401,243.2525,116.8363,0.00034504,4.026e-05,0.0,0 STARLINK-5595,1 55765U 23028AA  24114.49509184  .00004026  00000-0  34504-3 0  9996,2 55765  70.0016 152.2401 0002652 243.2525 116.8363 14.98322473 63883,6950.216,96.107,573.924,570.238,0.0
55765.0,STARLINK-5595,PAYLOAD,2024-04-24 03:54:15,14.98383032,0.0002485,70.001,150.5556,236.0795,124.0128,-0.00062728,-7.58e-05,0.0,0 STARLINK-5595,1 55765U 23028AA  24115.16268158 -.00007580  00000-0 -62728-3 0  9993,2 55765  70.0010 150.5556 0002485 236.0795 124.0128 14.98383032 63981,6950.029,96.104,573.621,570.167,0.0
55765.0,STARLINK-5595,PAYLOAD,2024-04-24 11:54:55,14.98369396,0.0002375,70.0006,149.7133,249.1119,110.9786,-0.00057566,-6.962e-05,0.0,0 STARLINK-5595,1 55765U 23028AA  24115.49648144 -.00006962  00000-0 -57566-3 0  9993,2 55765  70.0006 149.7133 0002375 249.1119 110.9786 14.98369396 64038,6950.071,96.104,573.587,570.285,0.0
55765.0,STARLINK-5595,PAYLOAD,2024-04-25 03:56:17,14.98336176,0.0002844,70.0,148.0308,259.7645,100.3193,-0.00010054,-1.293e-05,0.0,0 STARLINK-5595,1 55765U 23028AA  24116.16408834 -.00001293  00000-0 -10054-3 0  9991,2 55765  70.0000 148.0308 0002844 259.7645 100.3193 14.98336176 64136,6950.174,96.107,574.015,570.062,0.0
55765.0,STARLINK-5595,PAYLOAD,2024-04-25 11:56:57,14.98332191,0.0002918,69.9998,147.1885,259.3134,100.7697,-0.00013528,-1.707e-05,0.0,0 STARLINK-5595,1 55765U 23028AA  24116.49789033 -.00001707  00000-0 -13528-3 0  9999,2 55765  69.9998 147.1885 0002918 259.3134 100.7697 14.98332191 64192,6950.186,96.107,574.079,570.023,0.0
55765.0,STARLINK-5595,PAYLOAD,2024-04-26 03:58:17,14.98335249,0.0003033,69.9991,145.5046,259.9595,100.1221,-6.5659e-05,-8.76e-06,0.0,0 STARLINK-5595,1 55765U 23028AA  24117.16548520 -.00000876  00000-0 -65659-4 0  9997,2 55765  69.9991 145.5046 0003033 259.9595 100.1221 14.98335249 64286,6950.177,96.107,574.15,569.934,0.0
55765.0,STARLINK-5595,PAYLOAD,2024-04-26 11:58:58,14.98334585,0.0002847,69.9997,144.6641,257.1932,102.8909,-2.51e-05,-3.92e-06,0.0,0 STARLINK-5595,1 55765U 23028AA  24117.49928353 -.00000392  00000-0 -25100-4 0  9999,2 55765  69.9997 144.6641 0002847 257.1932 102.8909 14.98334585 64341,6950.179,96.107,574.022,570.065,0.0
